[{"OBJECT_NAME":"STEP CUBE LAB-II","OBJECT_ID":"2022-065D","EPOCH":"2026-03-09T21:53:04.022304","MEAN_MOTION":14.63120511,"ECCENTRICITY":0.00081203,"INCLINATION":98.2053,"RA_OF_ASC_NODE":213.2152,"ARG_OF_PERICENTER":344.1456,"MEAN_ANOMALY":15.9491,"EPHEMERIS_TYPE":0,"CLASSIFICATION_TYPE":"U","NORAD_CAT_ID":52897,"ELEMENT_SET_NO":999,"REV_AT_EPOCH":19698,"BSTAR":0.00036922387,"MEAN_MOTION_DOT":1.85e-5,"MEAN_MOTION_DDOT":0},{"OBJECT_NAME":"SL-8 R\/B","OBJECT_ID":"1967-116B","EPOCH":"2026-03-09T22:43:01.949376","MEAN_MOTION":14.63305767,"ECCENTRICITY":0.00071884,"INCLINATION":74.0069,"RA_OF_ASC_NODE":40.0721,"ARG_OF_PERICENTER":192.0921,"MEAN_ANOMALY":226.7491,"EPHEMERIS_TYPE":0,"CLASSIFICATION_TYPE":"U","NORAD_CAT_ID":3048,"ELEMENT_SET_NO":999,"REV_AT_EPOCH":9152,"BSTAR":0.00016788383,"MEAN_MOTION_DOT":8.36e-6,"MEAN_MOTION_DDOT":0}]
